[
  {
    "place_name": "돈암동찌개",
    "point": [
      "37.5924400358491",
      "127.018468160495"
    ],
    "tags": [
      "음식점",
      "한식",
      "성신"
    ],
    "address": "서울 성북구 동소문로20나길 34",
    "menu": [
      "통돼지양푼김치찌개",
      "계란말이"
    ],
    "description": "",
    "comments": []
  },
  {
    "place_name": "쵸이양식",
    "point": [
      "37.5922880194418",
      "127.018008412693"
    ],
    "tags": [
      "음식점",
      "양식",
      "성신"
    ],
    "address": "서울 성북구 동소문로20나길 24",
    "menu": [
      "감자튀김피자",
      "해를품은파스타"
    ],
    "description": "",
    "comments": []
  },
  {
    "place_name": "호호식당",
    "point": [
      "37.5819045501755",
      "127.000037700061"
    ],
    "tags": [
      "음식점",
      "일식",
      "혜화"
    ],
    "address": "서울 종로구 대학로9길 35",
    "menu": [
      "사케동",
      "가츠나베정식"
    ],
    "description": "",
    "comments": []
  },
  {
    "place_name": "와플앨리",
    "point": [
      "37.5909692223473",
      "127.019245101257"
    ],
    "tags": [
      "카페",
      "디저트",
      "성신"
    ],
    "address": "서울 성북구 보문로 34길 68-3",
    "menu": [
      "와플",
      "커피"
    ],
    "description": "",
    "comments": []
  },
  {
    "place_name": "CGV성신여대입구",
    "point": [
      "37.5925747617089",
      "127.017088831326"
    ],
    "tags": [
      "놀거리",
      "영화",
      "성신"
    ],
    "address": "서울 성북구 동소문로 106 유타빌딩",
    "menu": [],
    "description": "영화보기 좋은 곳",
    "comments": [
      "팝콘 마시쪙"
    ]
  },
  {
    "place_name": "모센즈 스위트 대학로점",
    "point": [
      "37.5819932215454",
      "127.004249922723"
    ],
    "tags": [
      "카페",
      "디저트",
      "혜화"
    ],
    "address": "서울 종로구 동숭동 50-59",
    "menu": [
      "카이막",
      "바끌라바"
    ],
    "description": "해외 디저트를 맛볼 수 있는 디저트 카페",
    "comments": []
  },
  {
    "place_name": "마이스윗서울",
    "point": [
      "37.5907980903249",
      "127.016491153377"
    ],
    "tags": [
      "카페",
      "디저트",
      "성신"
    ],
    "address": "서울  성북구 보문로38길 49",
    "menu": [
      "쑥케이크",
      "와인"
    ],
    "description": "야장에서 와인을 즐길 수 있는 이색 디저트 카페",
    "comments": []
  },
  {
    "place_name": "필로소피 라운지",
    "point": [
      "37.5632939528933",
      "126.991944267801"
    ],
    "tags": [
      "음식점",
      "기타",
      "을지로",
      "충무로"
    ],
    "address": "서울 중구 초동 53-6",
    "menu": [
      "버터스카치 푸딩",
      "필로소피 파르페",
      "시그니처 위스키"
    ],
    "description": "넓고 고즈넉한 분위기에 대화하기 좋은 바",
    "comments": []
  },
  {
    "place_name": "러시아케익",
    "point": [
      "37.5658383144767",
      "127.005880625314"
    ],
    "tags": [
      "카페",
      "디저트",
      "동대문"
    ],
    "address": "서울 중구 을지로42길 7",
    "menu": [
      "메도빅꿀케익",
      "나폴레옹"
    ],
    "description": "러시아 꿀케이크인 메도빅을 파는 카페",
    "comments": []
  },
  {
    "place_name": "줄리아",
    "point": [
      "37.5654984876339",
      "126.990429907008"
    ],
    "tags": [
      "음식점",
      "중식",
      "을지로"
    ],
    "address": "서울 중구 수표로 48-12",
    "menu": [
      "어향가지새우",
      "홍콩식비비큐플래터"
    ],
    "description": "홍콩식 음식을 파는 주점",
    "comments": []
  },
  {
    "place_name": "호텔수선화",
    "point": [
      "37.5656983321952",
      "126.991666017038"
    ],
    "tags": [
      "카페",
      "기타",
      "을지로"
    ],
    "address": "서울 중구 충무로 7길 17",
    "menu": [
      "디타토닉",
      "하이볼"
    ],
    "description": "을지로 숨겨진 느좋 카페 겸 바",
    "comments": []
  },
  {
    "place_name": "비너발트",
    "point": [
      "37.6019145815921",
      "127.041792251275"
    ],
    "tags": [
      "음식점",
      "기타",
      "월곡"
    ],
    "address": "서울 성북구 월곡로 112",
    "menu": [
      "슈바인학센",
      "독일소시지",
      "독일생맥주"
    ],
    "description": "독일 식 요리와 생맥주를 파는 주점",
    "comments": []
  },
  {
    "place_name": "을지다락",
    "point": [
      "37.5637445047995",
      "126.991427412426"
    ],
    "tags": [
      "음식점",
      "양식",
      "을지로"
    ],
    "address": "서울 중구 수표로10길 19",
    "menu": [
      "오므라이스",
      "게살매콤크림리조또",
      "찹목살필라프"
    ],
    "description": "블루리본이 보증하는 양식 맛집. 오므라이스 쇼도 함께",
    "comments": []
  },
  {
    "place_name": "라라면가",
    "point": [
      "37.5909461773932",
      "127.01966765882"
    ],
    "tags": [
      "음식점",
      "중식",
      "성신"
    ],
    "address": "서울 성북구 동소문로22길 57-25",
    "menu": [
      "우육탕면",
      "꿔바로우",
      "탄탄면"
    ],
    "description": "꿔바로우 꼭 시켜먹어야 하는 중식당",
    "comments": []
  },
  {
    "place_name": "천막집",
    "point": [
      "37.5890986959334",
      "127.019098673515"
    ],
    "tags": [
      "음식점",
      "한식",
      "성신"
    ],
    "address": "서울 성북구 보문로30길 31",
    "menu": [
      "돼지김치대창구이"
    ],
    "description": "돼지김치대창구이가 맛있는 요리주점",
    "comments": []
  },
  {
    "place_name": "브알라 대학로점",
    "point": [
      "37.5827488289051",
      "127.003160727291"
    ],
    "tags": [
      "카페",
      "기타",
      "디저트",
      "혜화"
    ],
    "address": "서울 종로구 대학로12길 21",
    "menu": [
      "아메리카노",
      "소금우유아이스크림"
    ],
    "description": "액화질소로 주문 즉시 아이스크림을 만들어주는 카페",
    "comments": []
  },
  {
    "place_name": "에필로그",
    "point": [
      "37.5829358025106",
      "127.002422234025"
    ],
    "tags": [
      "놀거리",
      "기타",
      "혜화"
    ],
    "address": "서울 종로구 대학로8가길 48",
    "menu": [],
    "description": "생생하게 재밌는 방탕출 카페",
    "comments": []
  },
  {
    "place_name": "CGV 대학로점",
    "point": [
      "37.5834579529328",
      "126.999842630109"
    ],
    "tags": [
      "놀거리",
      "영화",
      "혜화"
    ],
    "address": "서울 종로구 대명길 28",
    "menu": [],
    "description": "혜화 CGV",
    "comments": []
  },
  {
    "place_name": "학림",
    "point": [
      "37.5819304868796",
      "127.001677370261"
    ],
    "tags": [
      "카페",
      "차",
      "커피",
      "혜화"
    ],
    "address": "서울 종로구 대학로 119 2층",
    "menu": [
      "비엔나 커피",
      "크림치즈케익"
    ],
    "description": "1960년대 느낌이 나는 카페",
    "comments": []
  },
  {
    "place_name": "테르트르",
    "point": [
      "37.5782234595541",
      "127.011192857402"
    ],
    "tags": [
      "카페",
      "커피",
      "창신동"
    ],
    "address": "서울 종로구 낙산5길 46",
    "menu": [
      "아메리카노",
      "에이드"
    ],
    "description": "창신도 뷰맛집 카페",
    "comments": []
  },
  {
    "place_name": "우물집",
    "point": [
      "37.5796618299079",
      "127.00992319615"
    ],
    "tags": [
      "음식점",
      "한식",
      "창신동"
    ],
    "address": "서울 종로구 창신길 200",
    "menu": [
      "차돌박이매콤토마토전골",
      "솥밥"
    ],
    "description": "창신동 정갈하고 분위기 좋은 솥밥집",
    "comments": []
  },
  {
    "place_name": "낙산공원",
    "point": [
      "37.5805926127615",
      "127.006531505857"
    ],
    "tags": [
      "놀거리",
      "공원",
      "혜화"
    ],
    "address": "서울 종로구 낙산길 41",
    "menu": [],
    "description": "서울 풍경이 보이는 낙산공원",
    "comments": []
  },
  {
    "place_name": "다락방OTT",
    "point": [
      "37.5677904653014",
      "127.008036973777"
    ],
    "tags": [
      "놀거리",
      "영화",
      "동대문"
    ],
    "address": "서울 중구 장충단로 13길 11 4층",
    "menu": [],
    "description": "OTT 보면서 아늑하게 있을 수 있는 DVD방",
    "comments": []
  },
  {
    "place_name": "리움미술관",
    "point": [
      "37.5384612696435",
      "126.999294071613"
    ],
    "tags": [
      "놀거리",
      "전시회",
      "이태원"
    ],
    "address": "서울 용산구 이태원로 55길 60-16",
    "menu": [],
    "description": "전시회 보러가기 좋은 이태원 미술관",
    "comments": []
  },
  {
    "place_name": "팔레트와인",
    "point": [
      "37.5338318568374",
      "127.007746177161"
    ],
    "tags": [
      "놀거리",
      "기타",
      "한남동"
    ],
    "address": "서울 용산구 독서당로 65-1 지하1층",
    "menu": [
      "와인"
    ],
    "description": "친절하게 와인 설명 잘해주시는 와인집",
    "comments": []
  },
  {
    "place_name": "아이파크몰 용산",
    "point": [
      "37.5297718014452",
      "126.964741503485"
    ],
    "tags": [
      "놀거리",
      "쇼핑",
      "용산"
    ],
    "address": "서울 용산구 한강대로 23길 55 용산역",
    "menu": [],
    "description": "느긋하게 쇼핑할 수 있는 곳",
    "comments": []
  },
  {
    "place_name": "쿼츠",
    "point": [
      "37.5329621717645",
      "126.9718442489"
    ],
    "tags": [
      "카페",
      "커피",
      "차",
      "용산"
    ],
    "address": "서울 용산구 한강대로 158 1층",
    "menu": [
      "아이스크림라떼",
      "아메리카노"
    ],
    "description": "밀크티 라뗴가 맛있는 용산 카페",
    "comments": []
  },
  {
    "place_name": "테디뵈르하우스 용산점",
    "point": [
      "37.5315987586666",
      "126.972532410003"
    ],
    "tags": [
      "카페",
      "베이커리",
      "용산"
    ],
    "address": "서울 용산구 한강대로40가길 42 1층",
    "menu": [
      "크루와상"
    ],
    "description": "빵이 유명한 용리단길 빵집",
    "comments": []
  },
  {
    "place_name": "타코스탠드",
    "point": [
      "37.5414678573069",
      "126.987306809713"
    ],
    "tags": [
      "음식점",
      "기타",
      "해방촌"
    ],
    "address": "서울 용산구 신흥로 34",
    "menu": [
      "소곱창타코",
      "양고기타코"
    ],
    "description": "중독성 강한 타코를 파는 해방촌 타코집",
    "comments": []
  },
  {
    "place_name": "모블러",
    "point": [
      "37.595038795225",
      "127.020478014225"
    ],
    "tags": [
      "카페",
      "디저트",
      "베이커리",
      "커피",
      "성신"
    ],
    "address": "서울 성북구 동소문로26다길 26 1층 101호",
    "menu": [
      "휘낭시에"
    ],
    "description": "휘낭시에가 맛있는 카페",
    "comments": []
  },
  {
    "place_name": "선비촌보쌈",
    "point": [
      "37.6207542744737",
      "127.027669020142"
    ],
    "tags": [
      "음식점",
      "한식",
      "미아"
    ],
    "address": "서울 강북구 미아동 322-25",
    "menu": [
      "선비촌보쌈",
      "바지락미역칼국수",
      "바지락칼제비"
    ],
    "description": "늦게 가면 먹을 수 없는 미아의 숨은 보쌈 찐맛집!! \n어르신들의 맛집\n무말랭이가 찐임!",
    "comments": [
      "진짜 맛도리에요 - 프론트 개발자 추천"
    ]
  },
  {
    "place_name": "브라운헤이븐",
    "point": [
      "37.6155078307151",
      "127.031914034954"
    ],
    "tags": [
      "카페",
      "디저트",
      "베이커리",
      "커피"
    ],
    "address": "서울 강북구 미아동 75-290",
    "menu": [
      "옥수수크림파이",
      "인절미쑥파이"
    ],
    "description": "미아사거리 숨은 골목 파이 찐맛집!",
    "comments": []
  },
  {
    "place_name": "썬데이스낵낵",
    "point": [
      "37.615041728803",
      "127.030976919151"
    ],
    "tags": [
      "음식점",
      "한식",
      "양식",
      "미아",
      "미아사거리"
    ],
    "address": "서울 강북구 미아동 72-14",
    "menu": [
      "썬데이정식",
      "썬데이콤보"
    ],
    "description": "경양식 돈까스를 먹고 싶다면 이곳!\n오므라이스와 함께라면 행복은 두배",
    "comments": []
  },
  {
    "place_name": "애정마라샹궈",
    "point": [
      "37.5921624449481",
      "127.017245785576"
    ],
    "tags": [
      "음식점",
      "중식",
      "성신"
    ],
    "address": "서울 성북구 동선동1가 2-6",
    "menu": [
      "애정마라샹궈",
      "애정마라탕"
    ],
    "description": "마라탕이라고 거부하는 사람도 즐길 수 있는 마라탕!!",
    "comments": []
  },
  {
    "place_name": "스파츠",
    "point": [
      "37.5906934560891",
      "127.02016012849"
    ],
    "tags": [
      "카페",
      "디저트",
      "커피",
      "성신"
    ],
    "address": "동선동2가 142-1",
    "menu": [
      "스파츠슈페너",
      "쪼꼬생크림케이크"
    ],
    "description": "성신여대 숨은 느좋 카페 \n다양한 브런치와 디저트가 모두 맛있는 곳",
    "comments": []
  },
  {
    "place_name": "참숯꼼장어",
    "point": [
      "37.5650202907765",
      "127.021000079302"
    ],
    "tags": [
      "음식점",
      "한식",
      "신당",
      "동대문"
    ],
    "address": "신당동 142-3",
    "menu": [
      "생등갈비 소금",
      "꼼장어"
    ],
    "description": "꼼장어와 등갈비가 진짜 맛있는 집",
    "comments": []
  },
  {
    "place_name": "메일룸 신당",
    "point": [
      "37.5662479890746",
      "127.01885887491"
    ],
    "tags": [
      "카페",
      "커피",
      "기타",
      "디저트",
      "신당",
      "동대문"
    ],
    "address": "서울 중구 황학동 371-24",
    "menu": [
      "소금 에그타르트",
      "아포카토"
    ],
    "description": "이색적인 카페를 즐기고 싶다면!\n맛있는 디저트는 물론",
    "comments": []
  },
  {
    "place_name": "춘향미엔 신당점",
    "point": [
      "37.5625063835187",
      "127.015396877126"
    ],
    "tags": [
      "음식점",
      "중식",
      "신당",
      "동대문"
    ],
    "address": "서울 중구 신당동 292-111",
    "menu": [
      "비빔면",
      "온면",
      "고기만두"
    ],
    "description": "지금까지 먹어본 적 없는 진짜 맛있는 비빔면",
    "comments": []
  },
  {
    "place_name": "고봉당 혜화대학로점",
    "point": [
      "37.5831896346719",
      "127.00077394008"
    ],
    "tags": [
      "음식점",
      "한식",
      "혜화"
    ],
    "address": "서울 종로구 명륜4가 11-3",
    "menu": [
      "돌판양념등갈비구이",
      "인절미 떡구이"
    ],
    "description": "등갈비 양념이 대박이고 떡구이가 쫄깃해요!",
    "comments": []
  },
  {
    "place_name": "손기성젠바오",
    "point": [
      "37.5534844105695",
      "126.924299312948"
    ],
    "tags": [
      "음식점",
      "중식",
      "홍대",
      "합정"
    ],
    "address": "서울 마포구 서교동 344-6",
    "menu": [
      "성젠바오"
    ],
    "description": "딤섬이 맛있는 집",
    "comments": []
  },
  {
    "place_name": "카와카츠 본점",
    "point": [
      "37.5547376391352",
      "126.916207586959"
    ],
    "tags": [
      "음식점",
      "일식",
      "합정",
      "홍대"
    ],
    "address": "서울 마포구 서교동 465-1",
    "menu": [
      "로스카츠",
      "히레카츠",
      "특로스카츠"
    ],
    "description": "카츠를 먹어본다면 꼭 가봐야할 집",
    "comments": []
  },
  {
    "place_name": "오레노이키루미치",
    "point": [
      "37.5278685631192",
      "127.038040753003"
    ],
    "tags": [
      "음식점",
      "일식",
      "압구정"
    ],
    "address": "서울 강남구 신사동 660-10",
    "menu": [
      "라멘"
    ],
    "description": "한국에서 거의 볼 수 없는 지로라멘을 맛 볼 수 있는 곳",
    "comments": []
  },
  {
    "place_name": "스탠다드브레드 도산",
    "point": [
      "37.5240410286218",
      "127.038280785787"
    ],
    "tags": [
      "카페",
      "디저트",
      "베이커리",
      "압구정",
      "도산"
    ],
    "address": "신사동 654-10",
    "menu": [
      "솔티드버터 생 식빵",
      "크림브륄레 프렌치 토스트"
    ],
    "description": "다양하고 맛있는 생 식빵을 각종 스프레드에 즐겨 먹을 수 있는 곳",
    "comments": []
  },
  {
    "place_name": "뉴뉴 성수점",
    "point": [
      "37.5415208661419",
      "127.059297236519"
    ],
    "tags": [
      "놀거리",
      "쇼핑",
      "성수"
    ],
    "address": "서울 성동구 성수동2가 271-2",
    "menu": [],
    "description": "다양한 패션잡화를 구매하고 즐길 수 있는 곳",
    "comments": []
  },
  {
    "place_name": "메이타왕에그타르트",
    "point": [
      "37.5429271711278",
      "127.054182525996"
    ],
    "tags": [
      "카페",
      "디저트",
      "성수"
    ],
    "address": "서울 성동구 성수동2가 316-74",
    "menu": [
      "소금 에그타르트"
    ],
    "description": "성수에 소금빵 말고 에그타르트 먹으러 온다고 바꿔야 한다 라고 할 정도로 맛있는 소금빵 맛집",
    "comments": []
  },
  {
    "place_name": "포가",
    "point": [
      "37.5620192863546",
      "126.925862227945"
    ],
    "tags": [
      "음식점",
      "중식",
      "연남"
    ],
    "address": "서울 마포구 연남동 390-21",
    "menu": [
      "마늘쫑면"
    ],
    "description": "",
    "comments": []
  },
  {
    "place_name": "산동만두",
    "point": [
      "37.540005535076",
      "126.948515047586"
    ],
    "tags": [
      "음식점",
      "중식",
      "공덕"
    ],
    "address": "서울 마포구 도화동 327-1",
    "menu": [
      "군만두"
    ],
    "description": "일년에 두번만 예약받는 중국집",
    "comments": []
  },
  {
    "place_name": "안동장",
    "point": [
      "37.5661361226821",
      "126.99161673082"
    ],
    "tags": [
      "음식점",
      "중식",
      "을지로",
      "중구",
      "종로"
    ],
    "address": "서울 중구 을지로3가 315-1",
    "menu": [
      "굴짬뽕",
      "탕수육"
    ],
    "description": "1948년 개업한 노포 중국집",
    "comments": []
  },
  {
    "place_name": "카츠요",
    "point": [
      "37.5670023461631",
      "126.917977284851"
    ],
    "tags": [
      "음식점",
      "일식",
      "연남",
      "마포"
    ],
    "address": "서울 마포구 연남동 361-3",
    "menu": [
      "상로스카츠",
      "히레카츠",
      "로스카츠"
    ],
    "description": "카츠가 맛있는 집",
    "comments": []
  },
  {
    "place_name": "리틀에마스",
    "point": [
      "37.5510028939435",
      "126.953597718758"
    ],
    "tags": [
      "음식점",
      "양식",
      "마포"
    ],
    "address": "서울 마포구 아현동 618-19",
    "menu": [
      "살시차피자",
      "바질페스토",
      "마르게리타"
    ],
    "description": "2025 CAPUTO CUP S.G.T 부문 챔피언",
    "comments": []
  },
  {
    "place_name": "메카커피 충정로역점",
    "point": [
      "37.5581161473011",
      "126.965306488642"
    ],
    "tags": [
      "카페",
      "커피",
      "중구"
    ],
    "address": "서울 중구 중림동 200",
    "menu": [
      "아이스 아메리카노"
    ],
    "description": "성재형이 알바하는 메가커피",
    "comments": []
  },
  {
    "place_name": "아소토베이커리",
    "point": [
      "37.5637436939685",
      "126.991428318006"
    ],
    "tags": [
      "카페",
      "베이커리",
      "디저트",
      "중구"
    ],
    "address": "서울 중구 초동 156-9",
    "menu": [
      "아소토 페스츄리",
      "메론빵"
    ],
    "description": "여자친구 데리고 오라고 할 정도의 느좋카페",
    "comments": []
  },
  {
    "place_name": "유목민몽골",
    "point": [
      "37.5651834332559",
      "127.006586188364"
    ],
    "tags": [
      "음식점",
      "기타",
      "중구"
    ],
    "address": "서울 중구 광희동1가 187-1",
    "menu": [
      "몽골 전통 세트"
    ],
    "description": "몽골 사람이 인정한 곳",
    "comments": []
  },
  {
    "place_name": "성북동면옥집",
    "point": [
      "37.5958660477453",
      "126.988574974109"
    ],
    "tags": [
      "음식점",
      "한식",
      "성북"
    ],
    "address": "서울 성북구 성북동 330-105",
    "menu": [
      "왕갈비찜",
      "왕갈비탕",
      "오색만두",
      "모듬전"
    ],
    "description": "맛으로 승부하는 체급이 높은 맛집",
    "comments": []
  }
]